{"type": "FeatureCollection", "features": [ {"type": "Feature", "properties": {"norad_id": 36047, "name": "COSMOS 2251 DEB", "group": "cosmos-2251-debris", "lat": -26.80810248042115, "lon": 147.17074634708163, "alt_km": 588.0100125649769, "timestamp": "2025-12-20T07:33:51.210021+00:00", "meta": {"OBJECT_NAME": "COSMOS 2251 DEB", "OBJECT_ID": "1993-036AXJ", "EPOCH": "2025-12-18T04:53:35.477376", "MEAN_MOTION": 14.9621864, "ECCENTRICITY": 0.00084577, "INCLINATION": 74.0358, "RA_OF_ASC_NODE": 323.1177, "ARG_OF_PERICENTER": 350.3843, "MEAN_ANOMALY": 9.7178, "EPHEMERIS_TYPE": 0, "CLASSIFICATION_TYPE": "U", "NORAD_CAT_ID": 36047, "ELEMENT_SET_NO": 999, "REV_AT_EPOCH": 66021, "BSTAR": 0.0023104884, "MEAN_MOTION_DOT": 0.00026146, "MEAN_MOTION_DDOT": 0}, "tle": {"line1": "1 36047U 93036AXJ 25352.20388284  .00026146  00000+0  23105-2 0  9994", "line2": "2 36047  74.0358 323.1177 0008457 350.3843   9.7178 14.96218640660211"}}, "geometry": {"type": "Point", "coordinates": [147.17074634708163, -26.80810248042115]}}, {"type": "Feature", "properties": {"norad_id": 36048, "name": "COSMOS 2251 DEB", "group": "cosmos-2251-debris", "lat": -10.377381820744924, "lon": -77.64683735502484, "alt_km": 750.9170916261264, "timestamp": "2025-12-20T07:33:51.210031+00:00", "meta": {"OBJECT_NAME": "COSMOS 2251 DEB", "OBJECT_ID": "1993-036AXK", "EPOCH": "2025-12-19T05:13:15.256416", "MEAN_MOTION": 14.37862849, "ECCENTRICITY": 0.0026881, "INCLINATION": 74.0569, "RA_OF_ASC_NODE": 287.3716, "ARG_OF_PERICENTER": 336.0846, "MEAN_ANOMALY": 93.7282, "EPHEMERIS_TYPE": 0, "CLASSIFICATION_TYPE": "U", "NORAD_CAT_ID": 36048, "ELEMENT_SET_NO": 999, "REV_AT_EPOCH": 85595, "BSTAR": 0.0002086, "MEAN_MOTION_DOT": 6.05e-06, "MEAN_MOTION_DDOT": 0}, "tle": {"line1": "1 36048U 93036AXK 25353.21753769  .00000605  00000+0  20860-3 0  9999", "line2": "2 36048  74.0569 287.3716 0026881 336.0846  93.7282 14.37862849855958"}}, "geometry": {"type": "Point", "coordinates": [-77.64683735502484, -10.377381820744924]}}, {"type": "Feature", "properties": {"norad_id": 36049, "name": "COSMOS 2251 DEB", "group": "cosmos-2251-debris", "lat": 36.479124855598585, "lon": 116.89556835433184, "alt_km": 689.661682461865, "timestamp": "2025-12-20T07:33:51.210041+00:00", "meta": {"OBJECT_NAME": "COSMOS 2251 DEB", "OBJECT_ID": "1993-036AXL", "EPOCH": "2025-12-19T00:11:29.887584", "MEAN_MOTION": 14.62222603, "ECCENTRICITY": 0.00103942, "INCLINATION": 74.0312, "RA_OF_ASC_NODE": 107.1751, "ARG_OF_PERICENTER": 195.1693, "MEAN_ANOMALY": 164.9164, "EPHEMERIS_TYPE": 0, "CLASSIFICATION_TYPE": "U", "NORAD_CAT_ID": 36049, "ELEMENT_SET_NO": 999, "REV_AT_EPOCH": 85456, "BSTAR": 0.00099664593, "MEAN_MOTION_DOT": 4.999e-05, "MEAN_MOTION_DDOT": 0}, "tle": {"line1": "1 36049U 93036AXL 25353.00798481  .00004999  00000+0  99665-3 0  9996", "line2": "2 36049  74.0312 107.1751 0010394 195.1693 164.9164 14.62222603854561"}}, "geometry": {"type": "Point", "coordinates": [116.89556835433184, 36.479124855598585]}}, {"type": "Feature", "properties": {"norad_id": 36050, "name": "COSMOS 2251 DEB", "group": "cosmos-2251-debris", "lat": 73.9872727490485, "lon": -95.16829204519199, "alt_km": 616.037466377722, "timestamp": "2025-12-20T07:33:51.210051+00:00", "meta": {"OBJECT_NAME": "COSMOS 2251 DEB", "OBJECT_ID": "1993-036AXM", "EPOCH": "2025-12-15T21:35:48.459552", "MEAN_MOTION": 15.01080492, "ECCENTRICITY": 0.00887608, "INCLINATION": 74.0305, "RA_OF_ASC_NODE": 187.588, "ARG_OF_PERICENTER": 266.4769, "MEAN_ANOMALY": 92.6264, "EPHEMERIS_TYPE": 0, "CLASSIFICATION_TYPE": "U", "NORAD_CAT_ID": 36050, "ELEMENT_SET_NO": 999, "REV_AT_EPOCH": 67082, "BSTAR": 0.00042445305, "MEAN_MOTION_DOT": 5.866e-05, "MEAN_MOTION_DDOT": 0}, "tle": {"line1": "1 36050U 93036AXM 25349.89986643  .00005866  00000+0  42445-3 0  9997", "line2": "2 36050  74.0305 187.5880 0088760 266.4769  92.6264 15.01080492670823"}}, "geometry": {"type": "Point", "coordinates": [-95.16829204519199, 73.9872727490485]}}, {"type": "Feature", "properties": {"norad_id": 36053, "name": "COSMOS 2251 DEB", "group": "cosmos-2251-debris", "lat": -57.54475734992314, "lon": -14.782740201685828, "alt_km": 729.8880793923217, "timestamp": "2025-12-20T07:33:51.210062+00:00", "meta": {"OBJECT_NAME": "COSMOS 2251 DEB", "OBJECT_ID": "1993-036AXQ", "EPOCH": "2025-12-19T02:27:11.674944", "MEAN_MOTION": 14.57252603, "ECCENTRICITY": 0.00325446, "INCLINATION": 73.8697, "RA_OF_ASC_NODE": 140.476, "ARG_OF_PERICENTER": 87.3695, "MEAN_ANOMALY": 273.1193, "EPHEMERIS_TYPE": 0, "CLASSIFICATION_TYPE": "U", "NORAD_CAT_ID": 36053, "ELEMENT_SET_NO": 999, "REV_AT_EPOCH": 87537, "BSTAR": 0.0010759038, "MEAN_MOTION_DOT": 4.872e-05, "MEAN_MOTION_DDOT": 0}, "tle": {"line1": "1 36053U 93036AXQ 25353.10221846  .00004872  00000+0  10759-2 0  9994", "line2": "2 36053  73.8697 140.4760 0032544  87.3695 273.1193 14.57252603875378"}}, "geometry": {"type": "Point", "coordinates": [-14.782740201685828, -57.54475734992314]}}, {"type": "Feature", "properties": {"norad_id": 36058, "name": "COSMOS 2251 DEB", "group": "cosmos-2251-debris", "lat": 45.06789197056462, "lon": 35.71314242637394, "alt_km": 700.5202008422075, "timestamp": "2025-12-20T07:33:51.210072+00:00", "meta": {"OBJECT_NAME": "COSMOS 2251 DEB", "OBJECT_ID": "1993-036AXV", "EPOCH": "2025-12-16T09:31:35.831136", "MEAN_MOTION": 14.58710964, "ECCENTRICITY": 0.00443273, "INCLINATION": 74.0236, "RA_OF_ASC_NODE": 26.4887, "ARG_OF_PERICENTER": 159.9009, "MEAN_ANOMALY": 200.3914, "EPHEMERIS_TYPE": 0, "CLASSIFICATION_TYPE": "U", "NORAD_CAT_ID": 36058, "ELEMENT_SET_NO": 999, "REV_AT_EPOCH": 66164, "BSTAR": 0.00034845634, "MEAN_MOTION_DOT": 1.618e-05, "MEAN_MOTION_DDOT": 0}, "tle": {"line1": "1 36058U 93036AXV 25350.39694249  .00001618  00000+0  34846-3 0  9997", "line2": "2 36058  74.0236  26.4887 0044327 159.9009 200.3914 14.58710964661641"}}, "geometry": {"type": "Point", "coordinates": [35.71314242637394, 45.06789197056462]}}, {"type": "Feature", "properties": {"norad_id": 36060, "name": "COSMOS 2251 DEB", "group": "cosmos-2251-debris", "lat": -33.976845426428504, "lon": 51.64754658144227, "alt_km": 759.7603265830085, "timestamp": "2025-12-20T07:33:51.210103+00:00", "meta": {"OBJECT_NAME": "COSMOS 2251 DEB", "OBJECT_ID": "1993-036AXX", "EPOCH": "2025-12-18T07:56:47.942016", "MEAN_MOTION": 14.4201191, "ECCENTRICITY": 0.00154616, "INCLINATION": 74.0282, "RA_OF_ASC_NODE": 224.1973, "ARG_OF_PERICENTER": 320.5439, "MEAN_ANOMALY": 39.459, "EPHEMERIS_TYPE": 0, "CLASSIFICATION_TYPE": "U", "NORAD_CAT_ID": 36060, "ELEMENT_SET_NO": 999, "REV_AT_EPOCH": 85090, "BSTAR": 0.00025465376, "MEAN_MOTION_DOT": 8.1e-06, "MEAN_MOTION_DDOT": 0}, "tle": {"line1": "1 36060U 93036AXX 25352.33111044  .00000810  00000+0  25465-3 0  9993", "line2": "2 36060  74.0282 224.1973 0015461 320.5439  39.4590 14.42011910850906"}}, "geometry": {"type": "Point", "coordinates": [51.64754658144227, -33.976845426428504]}}, {"type": "Feature", "properties": {"norad_id": 36061, "name": "COSMOS 2251 DEB", "group": "cosmos-2251-debris", "lat": 8.023731993595902, "lon": 163.58316722168823, "alt_km": 785.1998219634661, "timestamp": "2025-12-20T07:33:51.210114+00:00", "meta": {"OBJECT_NAME": "COSMOS 2251 DEB", "OBJECT_ID": "1993-036AXY", "EPOCH": "2025-12-15T17:55:08.095872", "MEAN_MOTION": 14.33713146, "ECCENTRICITY": 0.00367991, "INCLINATION": 74.0242, "RA_OF_ASC_NODE": 354.2562, "ARG_OF_PERICENTER": 81.2237, "MEAN_ANOMALY": 279.3079, "EPHEMERIS_TYPE": 0, "CLASSIFICATION_TYPE": "U", "NORAD_CAT_ID": 36061, "ELEMENT_SET_NO": 999, "REV_AT_EPOCH": 65147, "BSTAR": 0.00027590632, "MEAN_MOTION_DOT": 7.46e-06, "MEAN_MOTION_DDOT": 0}, "tle": {"line1": "1 36061U 93036AXY 25349.74662148  .00000746  00000+0  27591-3 0  9991", "line2": "2 36061  74.0242 354.2562 0036799  81.2237 279.3079 14.33713146651474"}}, "geometry": {"type": "Point", "coordinates": [163.58316722168823, 8.023731993595902]}}, {"type": "Feature", "properties": {"norad_id": 36073, "name": "COSMOS 2251 DEB", "group": "cosmos-2251-debris", "lat": -55.40519844573156, "lon": -75.85331626973026, "alt_km": 776.916871168919, "timestamp": "2025-12-20T07:33:51.210124+00:00", "meta": {"OBJECT_NAME": "COSMOS 2251 DEB", "OBJECT_ID": "1993-036AYL", "EPOCH": "2025-12-18T03:58:06.481920", "MEAN_MOTION": 14.34959898, "ECCENTRICITY": 0.00240895, "INCLINATION": 74.0326, "RA_OF_ASC_NODE": 312.6126, "ARG_OF_PERICENTER": 19.0207, "MEAN_ANOMALY": 341.1839, "EPHEMERIS_TYPE": 0, "CLASSIFICATION_TYPE": "U", "NORAD_CAT_ID": 36073, "ELEMENT_SET_NO": 999, "REV_AT_EPOCH": 70285, "BSTAR": 0.0001893667, "MEAN_MOTION_DOT": 5.14e-06, "MEAN_MOTION_DDOT": 0}, "tle": {"line1": "1 36073U 93036AYL 25352.16535280  .00000514  00000+0  18937-3 0  9997", "line2": "2 36073  74.0326 312.6126 0024089  19.0207 341.1839 14.34959898702857"}}, "geometry": {"type": "Point", "coordinates": [-75.85331626973026, -55.40519844573156]}}, {"type": "Feature", "properties": {"norad_id": 36074, "name": "COSMOS 2251 DEB", "group": "cosmos-2251-debris", "lat": -40.559459150622295, "lon": -47.85713921490331, "alt_km": 756.409802591359, "timestamp": "2025-12-20T07:33:51.210134+00:00", "meta": {"OBJECT_NAME": "COSMOS 2251 DEB", "OBJECT_ID": "1993-036AYM", "EPOCH": "2025-12-17T04:55:34.739616", "MEAN_MOTION": 14.43760583, "ECCENTRICITY": 0.00415505, "INCLINATION": 73.9924, "RA_OF_ASC_NODE": 332.1608, "ARG_OF_PERICENTER": 62.4035, "MEAN_ANOMALY": 298.1332, "EPHEMERIS_TYPE": 0, "CLASSIFICATION_TYPE": "U", "NORAD_CAT_ID": 36074, "ELEMENT_SET_NO": 999, "REV_AT_EPOCH": 85974, "BSTAR": 0.00075567049, "MEAN_MOTION_DOT": 2.571e-05, "MEAN_MOTION_DDOT": 0}, "tle": {"line1": "1 36074U 93036AYM 25351.20526319  .00002571  00000+0  75567-3 0  9992", "line2": "2 36074  73.9924 332.1608 0041550  62.4035 298.1332 14.43760583859746"}}, "geometry": {"type": "Point", "coordinates": [-47.85713921490331, -40.559459150622295]}}]}